[{"OBJECT_NAME":"STARLINK-32730","OBJECT_ID":"2024-251R","EPOCH":"2025-09-02T00:16:19.876224","MEAN_MOTION":15.30196261,"ECCENTRICITY":0.00010279,"INCLINATION":53.1595,"RA_OF_ASC_NODE":131.4972,"ARG_OF_PERICENTER":75.2001,"MEAN_ANOMALY":284.9114,"EPHEMERIS_TYPE":0,"CLASSIFICATION_TYPE":"U","NORAD_CAT_ID":62447,"ELEMENT_SET_NO":999,"REV_AT_EPOCH":3906,"BSTAR":0.0025080635,"MEAN_MOTION_DOT":0.00074663,"MEAN_MOTION_DDOT":0},{"OBJECT_NAME":"STARLINK-32719","OBJECT_ID":"2024-251S","EPOCH":"2025-09-02T01:45:57.223008","MEAN_MOTION":15.30194197,"ECCENTRICITY":0.00012696,"INCLINATION":53.1601,"RA_OF_ASC_NODE":131.7405,"ARG_OF_PERICENTER":79.6329,"MEAN_ANOMALY":280.4815,"EPHEMERIS_TYPE":0,"CLASSIFICATION_TYPE":"U","NORAD_CAT_ID":62448,"ELEMENT_SET_NO":999,"REV_AT_EPOCH":3889,"BSTAR":0.00024461878,"MEAN_MOTION_DOT":6.891e-5,"MEAN_MOTION_DDOT":0},{"OBJECT_NAME":"STARLINK-32723","OBJECT_ID":"2024-251T","EPOCH":"2025-09-02T02:04:03.554400","MEAN_MOTION":15.30218092,"ECCENTRICITY":0.00011293,"INCLINATION":53.1589,"RA_OF_ASC_NODE":131.2575,"ARG_OF_PERICENTER":78.5297,"MEAN_ANOMALY":281.583,"EPHEMERIS_TYPE":0,"CLASSIFICATION_TYPE":"U","NORAD_CAT_ID":62449,"ELEMENT_SET_NO":999,"REV_AT_EPOCH":3891,"BSTAR":0.0014005589,"MEAN_MOTION_DOT":0.00041376,"MEAN_MOTION_DDOT":0},{"OBJECT_NAME":"STARLINK-32722","OBJECT_ID":"2024-251U","EPOCH":"2025-09-02T06:38:37.157280","MEAN_MOTION":15.30226871,"ECCENTRICITY":0.00015273,"INCLINATION":53.1586,"RA_OF_ASC_NODE":130.3081,"ARG_OF_PERICENTER":90.3328,"MEAN_ANOMALY":269.7848,"EPHEMERIS_TYPE":0,"CLASSIFICATION_TYPE":"U","NORAD_CAT_ID":62450,"ELEMENT_SET_NO":999,"REV_AT_EPOCH":3873,"BSTAR":0.0027280346,"MEAN_MOTION_DOT":0.00081394,"MEAN_MOTION_DDOT":0},{"OBJECT_NAME":"STARLINK-32720","OBJECT_ID":"2024-251V","EPOCH":"2025-09-01T23:32:25.323360","MEAN_MOTION":15.30213584,"ECCENTRICITY":0.00010235,"INCLINATION":53.1575,"RA_OF_ASC_NODE":132.0243,"ARG_OF_PERICENTER":65.0513,"MEAN_ANOMALY":295.0594,"EPHEMERIS_TYPE":0,"CLASSIFICATION_TYPE":"U","NORAD_CAT_ID":62451,"ELEMENT_SET_NO":999,"REV_AT_EPOCH":3868,"BSTAR":0.00091038395,"MEAN_MOTION_DOT":0.00026712,"MEAN_MOTION_DDOT":0},{"OBJECT_NAME":"STARLINK-32656","OBJECT_ID":"2024-251W","EPOCH":"2025-09-01T23:53:41.848800","MEAN_MOTION":15.30190803,"ECCENTRICITY":9.542e-5,"INCLINATION":53.1561,"RA_OF_ASC_NODE":132.1126,"ARG_OF_PERICENTER":99.3477,"MEAN_ANOMALY":260.7631,"EPHEMERIS_TYPE":0,"CLASSIFICATION_TYPE":"U","NORAD_CAT_ID":62452,"ELEMENT_SET_NO":999,"REV_AT_EPOCH":3889,"BSTAR":0.0014037178,"MEAN_MOTION_DOT":0.00041435,"MEAN_MOTION_DDOT":0},{"OBJECT_NAME":"STARLINK-32690","OBJECT_ID":"2024-251X","EPOCH":"2025-09-02T01:51:54.568224","MEAN_MOTION":15.30237903,"ECCENTRICITY":0.00016534,"INCLINATION":53.1597,"RA_OF_ASC_NODE":131.2018,"ARG_OF_PERICENTER":92.1994,"MEAN_ANOMALY":267.9196,"EPHEMERIS_TYPE":0,"CLASSIFICATION_TYPE":"U","NORAD_CAT_ID":62453,"ELEMENT_SET_NO":999,"REV_AT_EPOCH":3869,"BSTAR":0.0017319249,"MEAN_MOTION_DOT":0.00051351,"MEAN_MOTION_DDOT":0},{"OBJECT_NAME":"STARLINK-11518 [DTC]","OBJECT_ID":"2024-254A","EPOCH":"2025-09-01T19:51:10.310688","MEAN_MOTION":15.70880046,"ECCENTRICITY":8.332e-5,"INCLINATION":42.9999,"RA_OF_ASC_NODE":281.7813,"ARG_OF_PERICENTER":357.1082,"MEAN_ANOMALY":2.9781,"EPHEMERIS_TYPE":0,"CLASSIFICATION_TYPE":"U","NORAD_CAT_ID":62462,"ELEMENT_SET_NO":999,"REV_AT_EPOCH":3970,"BSTAR":0.0023405789,"MEAN_MOTION_DOT":0.00311962,"MEAN_MOTION_DDOT":0},{"OBJECT_NAME":"STARLINK-11455 [DTC]","OBJECT_ID":"2024-254B","EPOCH":"2025-09-02T05:08:09.606912","MEAN_MOTION":15.71194215,"ECCENTRICITY":0.00023421,"INCLINATION":42.9993,"RA_OF_ASC_NODE":279.5237,"ARG_OF_PERICENTER":215.9,"MEAN_ANOMALY":144.1711,"EPHEMERIS_TYPE":0,"CLASSIFICATION_TYPE":"U","NORAD_CAT_ID":62463,"ELEMENT_SET_NO":999,"REV_AT_EPOCH":3975,"BSTAR":0.0041724463,"MEAN_MOTION_DOT":0.0058279,"MEAN_MOTION_DDOT":0},{"OBJECT_NAME":"STARLINK-11459 [DTC]","OBJECT_ID":"2024-254C","EPOCH":"2025-09-02T05:30:55.641888","MEAN_MOTION":15.70785451,"ECCENTRICITY":9.674e-5,"INCLINATION":42.9993,"RA_OF_ASC_NODE":278.7561,"ARG_OF_PERICENTER":285.8294,"MEAN_ANOMALY":74.2467,"EPHEMERIS_TYPE":0,"CLASSIFICATION_TYPE":"U","NORAD_CAT_ID":62464,"ELEMENT_SET_NO":999,"REV_AT_EPOCH":3975,"BSTAR":0.0057733764,"MEAN_MOTION_DOT":0.00816105,"MEAN_MOTION_DDOT":0},{"OBJECT_NAME":"STARLINK-11178 [DTC]","OBJECT_ID":"2024-254D","EPOCH":"2025-09-02T03:13:39.892800","MEAN_MOTION":15.70946063,"ECCENTRICITY":0.00010668,"INCLINATION":43.0002,"RA_OF_ASC_NODE":279.7787,"ARG_OF_PERICENTER":240.0319,"MEAN_ANOMALY":120.0443,"EPHEMERIS_TYPE":0,"CLASSIFICATION_TYPE":"U","NORAD_CAT_ID":62465,"ELEMENT_SET_NO":999,"REV_AT_EPOCH":3958,"BSTAR":0.0025973111,"MEAN_MOTION_DOT":0.0034875,"MEAN_MOTION_DDOT":0},{"OBJECT_NAME":"STARLINK-11506 [DTC]","OBJECT_ID":"2024-254E","EPOCH":"2025-09-01T10:56:54.708864","MEAN_MOTION":15.70899269,"ECCENTRICITY":0.00014317,"INCLINATION":42.9991,"RA_OF_ASC_NODE":283.2686,"ARG_OF_PERICENTER":319.0139,"MEAN_ANOMALY":41.0621,"EPHEMERIS_TYPE":0,"CLASSIFICATION_TYPE":"U","NORAD_CAT_ID":62466,"ELEMENT_SET_NO":999,"REV_AT_EPOCH":3948,"BSTAR":0.0023093093,"MEAN_MOTION_DOT":0.00307876,"MEAN_MOTION_DDOT":0},{"OBJECT_NAME":"STARLINK-11486 [DTC]","OBJECT_ID":"2024-254F","EPOCH":"2025-09-02T03:21:18.504864","MEAN_MOTION":15.70946724,"ECCENTRICITY":0.00011342,"INCLINATION":42.9992,"RA_OF_ASC_NODE":279.8195,"ARG_OF_PERICENTER":246.7807,"MEAN_ANOMALY":113.2941,"EPHEMERIS_TYPE":0,"CLASSIFICATION_TYPE":"U","NORAD_CAT_ID":62467,"ELEMENT_SET_NO":999,"REV_AT_EPOCH":3974,"BSTAR":0.0024065333,"MEAN_MOTION_DOT":0.00322057,"MEAN_MOTION_DDOT":0},{"OBJECT_NAME":"STARLINK-11511 [DTC]","OBJECT_ID":"2024-254G","EPOCH":"2025-09-01T19:12:56.594592","MEAN_MOTION":15.708942,"ECCENTRICITY":7.037e-5,"INCLINATION":42.9989,"RA_OF_ASC_NODE":281.5643,"ARG_OF_PERICENTER":13.8118,"MEAN_ANOMALY":346.2769,"EPHEMERIS_TYPE":0,"CLASSIFICATION_TYPE":"U","NORAD_CAT_ID":62468,"ELEMENT_SET_NO":999,"REV_AT_EPOCH":3969,"BSTAR":0.0018899688,"MEAN_MOTION_DOT":0.00250071,"MEAN_MOTION_DDOT":0},{"OBJECT_NAME":"STARLINK-11505 [DTC]","OBJECT_ID":"2024-254H","EPOCH":"2025-09-02T02:35:26.276928","MEAN_MOTION":15.7106692,"ECCENTRICITY":0.00012065,"INCLINATION":42.999,"RA_OF_ASC_NODE":279.5621,"ARG_OF_PERICENTER":225.838,"MEAN_ANOMALY":134.2388,"EPHEMERIS_TYPE":0,"CLASSIFICATION_TYPE":"U","NORAD_CAT_ID":62469,"ELEMENT_SET_NO":999,"REV_AT_EPOCH":3973,"BSTAR":0.003021387,"MEAN_MOTION_DOT":0.00410938,"MEAN_MOTION_DDOT":0},{"OBJECT_NAME":"STARLINK-11497 [DTC]","OBJECT_ID":"2024-254J","EPOCH":"2025-09-01T19:20:35.328480","MEAN_MOTION":15.70901013,"ECCENTRICITY":6.561e-5,"INCLINATION":42.9987,"RA_OF_ASC_NODE":281.6068,"ARG_OF_PERICENTER":17.0617,"MEAN_ANOMALY":343.0273,"EPHEMERIS_TYPE":0,"CLASSIFICATION_TYPE":"U","NORAD_CAT_ID":62470,"ELEMENT_SET_NO":999,"REV_AT_EPOCH":3969,"BSTAR":0.0020959708,"MEAN_MOTION_DOT":0.00278419,"MEAN_MOTION_DDOT":0},{"OBJECT_NAME":"STARLINK-11477 [DTC]","OBJECT_ID":"2024-254K","EPOCH":"2025-09-01T19:14:15.320544","MEAN_MOTION":15.7089173,"ECCENTRICITY":5.953e-5,"INCLINATION":42.9992,"RA_OF_ASC_NODE":281.5701,"ARG_OF_PERICENTER":14.4489,"MEAN_ANOMALY":345.6395,"EPHEMERIS_TYPE":0,"CLASSIFICATION_TYPE":"U","NORAD_CAT_ID":62471,"ELEMENT_SET_NO":999,"REV_AT_EPOCH":3968,"BSTAR":0.0019057151,"MEAN_MOTION_DOT":0.00252199,"MEAN_MOTION_DDOT":0},{"OBJECT_NAME":"STARLINK-11500 [DTC]","OBJECT_ID":"2024-254L","EPOCH":"2025-09-01T11:04:32.871648","MEAN_MOTION":15.70884206,"ECCENTRICITY":0.00022178,"INCLINATION":43.0016,"RA_OF_ASC_NODE":283.3079,"ARG_OF_PERICENTER":281.4795,"MEAN_ANOMALY":78.5824,"EPHEMERIS_TYPE":0,"CLASSIFICATION_TYPE":"U","NORAD_CAT_ID":62472,"ELEMENT_SET_NO":999,"REV_AT_EPOCH":3911,"BSTAR":0.0012215765,"MEAN_MOTION_DOT":0.00159644,"MEAN_MOTION_DDOT":0},{"OBJECT_NAME":"STARLINK-11464 [DTC]","OBJECT_ID":"2024-254M","EPOCH":"2025-09-02T03:06:01.152864","MEAN_MOTION":15.70972272,"ECCENTRICITY":0.00012526,"INCLINATION":42.9987,"RA_OF_ASC_NODE":279.7314,"ARG_OF_PERICENTER":256.7322,"MEAN_ANOMALY":103.3406,"EPHEMERIS_TYPE":0,"CLASSIFICATION_TYPE":"U","NORAD_CAT_ID":62473,"ELEMENT_SET_NO":999,"REV_AT_EPOCH":3979,"BSTAR":0.0034794971,"MEAN_MOTION_DOT":0.0047516,"MEAN_MOTION_DDOT":0},{"OBJECT_NAME":"STARLINK-11502 [DTC]","OBJECT_ID":"2024-254N","EPOCH":"2025-09-02T02:43:05.116224","MEAN_MOTION":15.70927042,"ECCENTRICITY":1.928e-5,"INCLINATION":42.9962,"RA_OF_ASC_NODE":279.6029,"ARG_OF_PERICENTER":311.4729,"MEAN_ANOMALY":48.6122,"EPHEMERIS_TYPE":0,"CLASSIFICATION_TYPE":"U","NORAD_CAT_ID":62474,"ELEMENT_SET_NO":999,"REV_AT_EPOCH":3974,"BSTAR":0.0020073365,"MEAN_MOTION_DOT":0.0026654,"MEAN_MOTION_DDOT":0},{"OBJECT_NAME":"STARLINK-32657","OBJECT_ID":"2024-254P","EPOCH":"2025-09-02T00:59:52.370304","MEAN_MOTION":15.27599029,"ECCENTRICITY":7.094e-5,"INCLINATION":43.0026,"RA_OF_ASC_NODE":5.0532,"ARG_OF_PERICENTER":298.6455,"MEAN_ANOMALY":61.4325,"EPHEMERIS_TYPE":0,"CLASSIFICATION_TYPE":"U","NORAD_CAT_ID":62475,"ELEMENT_SET_NO":999,"REV_AT_EPOCH":3861,"BSTAR":0.0015045293,"MEAN_MOTION_DOT":0.00041396,"MEAN_MOTION_DDOT":0},{"OBJECT_NAME":"STARLINK-32734","OBJECT_ID":"2024-254Q","EPOCH":"2025-09-01T14:34:46.903584","MEAN_MOTION":15.27587762,"ECCENTRICITY":0.00017523,"INCLINATION":43.0065,"RA_OF_ASC_NODE":4.3527,"ARG_OF_PERICENTER":288.713,"MEAN_ANOMALY":71.3532,"EPHEMERIS_TYPE":0,"CLASSIFICATION_TYPE":"U","NORAD_CAT_ID":62476,"ELEMENT_SET_NO":999,"REV_AT_EPOCH":3873,"BSTAR":0.0015199978,"MEAN_MOTION_DOT":0.00041812,"MEAN_MOTION_DDOT":0},{"OBJECT_NAME":"STARLINK-32733","OBJECT_ID":"2024-254R","EPOCH":"2025-09-02T00:36:31.138560","MEAN_MOTION":15.27581808,"ECCENTRICITY":6.422e-5,"INCLINATION":43.0028,"RA_OF_ASC_NODE":1.4631,"ARG_OF_PERICENTER":326.5229,"MEAN_ANOMALY":33.5582,"EPHEMERIS_TYPE":0,"CLASSIFICATION_TYPE":"U","NORAD_CAT_ID":62477,"ELEMENT_SET_NO":999,"REV_AT_EPOCH":3880,"BSTAR":0.002801156,"MEAN_MOTION_DOT":0.00077638,"MEAN_MOTION_DDOT":0}]
